242P/Spahr,e,32.5089,180.3769,245.6056,5.495775,0.0764999,0.27864782,290.5894,07/06.0/2022,2000,g  8.0,4.0
# From MPEC 2022-K19
243P/NEAT,e,7.6407,87.6121,283.5963,3.830193,0.1314841,0.36053970,185.1870,07/06.0/2022,2000,g 12.5,4.0
# From MPEC 2022-ED3
244P/Scotti,e,2.2594,353.9911,93.0772,4.895297,0.0909988,0.19913762,347.8034,07/06.0/2022,2000,g  9.0,4.0
# From MPEC 2022-CN4
245P/WISE,e,21.1936,316.6578,316.8778,4.046450,0.1210857,0.45648736,194.8514,07/06.0/2022,2000,g 14.0,4.0
# From MPEC 2022-N37
246P/NEAT,e,15.9660,78.5297,176.8830,4.030956,0.1217845,0.28905168,60.4369,07/06.0/2022,2000,g 10.5,4.0
# From MPEC 2021-F20
247P/LINEAR,e,13.6570,54.0208,47.4222,3.968013,0.1246937,0.62444142,163.6920,07/06.0/2022,2000,g 16.5,2.0
# From MPC 75730
248P/Gibbs,e,6.3508,207.8024,209.8511,5.991019,0.0672130,0.63886778,281.5470,07/06.0/2022,2000,g 14.0,4.0
# From MPEC 2021-S45
249P/LINEAR,e,8.3886,239.1107,65.7033,2.763402,0.2145547,0.81987788,158.0227,07/06.0/2022,2000,g 15.5,4.0
# From MPC110497
250P/Larson,e,13.1541,73.3989,46.1344,3.766770,0.1348188,0.39923478,218.8453,07/06.0/2022,2000,g 14.5,4.0
# From MPC104795
251P/LINEAR,e,23.3868,219.3537,31.2785,3.512121,0.1497441,0.50462144,272.0619,07/06.0/2022,2000,g 16.5,2.0
# From MPEC 2021-S45
252P/LINEAR,e,10.4111,190.9290,343.3522,3.050195,0.1850174,0.67168177,66.5604,07/06.0/2022,2000,g 17.5,4.0
# From MPEC 2020-FB5
253P/PANSTARRS,e,4.9435,146.8850,230.6734,3.465269,0.1527913,0.41441679,231.9921,07/06.0/2022,2000,g 14.5,4.0
# From MPEC 2022-K19
254P/McNaught,e,32.5704,129.1799,219.6050,4.614373,0.0994340,0.31977578,64.0158,07/06.0/2022,2000,g 11.0,4.0
# From MPEC 2021-UA9
255P/Levy,e,13.4109,275.6660,186.0107,2.942542,0.1952630,0.71156192,347.6408,07/06.0/2022,2000,g 14.1,4.0
# From MPEC 2022-C56
256P/LINEAR,e,27.6193,81.3393,124.2110,4.639151,0.0986385,0.41797286,335.4068,07/06.0/2022,2000,g 14.0,2.0
# From MPEC 2021-Y10
257P/Catalina,e,20.2202,207.7227,117.7239,3.763322,0.1350041,0.43025094,89.5422,07/06.0/2022,2000,g 11.5,4.0
# From MPEC 2021-U31
258P/PANSTARRS,e,6.7463,126.2422,25.8508,4.395652,0.1069471,0.20840292,80.0023,07/06.0/2022,2000,g 13.0,4.0
# From MPC106349
259P/Garradd,e,15.8919,51.4356,257.6381,2.731058,0.2183773,0.33890114,32.2398,07/06.0/2022,2000,g 15.5,4.0
# From MPEC 2022-K19
260P/McNaught,e,15.0586,349.3385,18.4289,3.623149,0.1429140,0.60934550,147.1225,07/06.0/2022,2000,g 13.5,4.0
# From MPEC 2021-J28
261P/Larson,e,6.0730,291.1337,67.2205,3.490424,0.1511426,0.42336394,168.1530,07/06.0/2022,2000,g 14.0,4.0
# From MPC 82322
262P/McNaught-Russell,e,29.2711,217.8676,171.0405,6.872461,0.0547061,0.81615890,191.5157,07/06.0/2022,2000,g 13.5,4.0
# From MPC 89018
263P/Gibbs,e,11.5213,105.5168,35.0146,3.042397,0.1857292,0.59356105,321.2632,07/06.0/2022,2000,g  9.0,4.0
# From MPC114608
264P/Larsen,e,25.2692,220.3407,346.7187,3.887776,0.1285737,0.37577196,137.1594,07/06.0/2022,2000,g 13.0,4.0
# From MPC 79870
265P/LINEAR,e,14.3648,342.9261,33.4642,4.255026,0.1122925,0.64761488,57.4786,07/06.0/2022,2000,g 14.5,4.0
# From MPEC 2021-F20
266P/Christensen,e,3.4270,4.9979,97.6966,3.532257,0.1484655,0.33967849,119.9276,07/06.0/2022,2000,g 14.7,4.0
# From MPC114608
267P/LONEOS,e,6.1420,228.5789,114.2155,3.211130,0.1712842,0.61441761,247.1827,07/06.0/2022,2000,g 19.5,4.0
# From MPC 92277
268P/Bernardi,e,15.8417,126.8977,359.8002,4.565029,0.1010506,0.47780514,269.2623,07/06.0/2022,2000,g 14.0,4.0
# From MPC104795
269P/Jedicke,e,7.0783,241.7329,225.7392,7.071274,0.0524152,0.43110935,148.6934,07/06.0/2022,2000,g 10.0,4.0
# From MPC 88332
270P/Gehrels,e,2.9229,223.0154,209.7697,6.660967,0.0573321,0.46851465,189.9874,07/06.0/2022,2000,g  8.0,4.0
# From MPC 92277
271P/van Houten-Lemmon,e,6.8723,9.3186,36.3897,7.038159,0.0527856,0.39529639,172.9802,07/06.0/2022,2000,g 11.0,4.0
# From MPEC 2022-C56
272P/NEAT,e,18.0740,109.4699,27.8961,4.460301,0.1046304,0.45470273,358.8440,07/06.0/2022,2000,g 16.0,2.0
# From MPC 82723
273P/Pons-Gambart,e,136.7506,320.3987,20.3221,31.94061,0.0054600,0.97426041,0.0000,12/20.4291/2012,2000,g 11.5,4.0
# From MPEC 2022-M21
274P/Tombaugh-Tenagra,e,15.8153,81.3376,38.4681,4.376061,0.1076661,0.43941576,9.5331,07/06.0/2022,2000,g 13.0,4.0
# From MPC 81862
275P/Hermann,e,21.2752,348.7573,173.9958,5.776351,0.0709943,0.71267673,247.9422,07/06.0/2022,2000,g 17.0,4.0
# From MPEC 2022-K19
276P/Vorobjov,e,14.8102,211.3608,199.5422,5.323041,0.0802536,0.26769198,288.4568,07/06.0/2022,2000,g 11.5,4.0
# From MPEC 2021-F20
277P/LINEAR,e,16.7771,276.3236,152.3187,3.853410,0.1302975,0.50598230,72.0227,07/06.0/2022,2000,g 15.1,4.0
# From MPEC 2021-S45
278P/McNaught,e,6.6965,15.3830,237.7641,3.686870,0.1392251,0.43617132,92.2222,07/06.0/2022,2000,g 14.0,4.0
# From MPEC 2022-K19
279P/LaSagra,e,5.0525,346.2327,5.8553,3.572810,0.1459450,0.39871777,318.0276,07/06.0/2022,2000,g 14.0,4.0
# From MPEC 2022-K19
280P/Larsen,e,11.7735,131.3928,104.7497,4.530034,0.1022238,0.41730175,319.6496,07/06.0/2022,2000,g 12.5,4.0
# From MPEC 2021-W31
281P/MOSS,e,4.7188,87.1807,26.6558,4.875418,0.0915559,0.17248011,340.7182,07/06.0/2022,2000,g 11.0,4.0
# From MPC133426
282P/,e,5.8117,9.2978,217.6285,4.239186,0.1129225,0.18827275,28.7267,07/06.0/2022,2000,g 13.5,2.0
# From MPEC 2022-K19
283P/Spacewatch,e,14.4552,161.1294,22.2307,4.136674,0.1171459,0.48457911,35.2664,07/06.0/2022,2000,g 16.0,2.0
# From MPEC 2022-K19
284P/McNaught,e,11.8613,144.2607,202.4139,3.676020,0.1398419,0.37549361,41.4525,07/06.0/2022,2000,g 13.0,4.0
# From MPC 85339
285P/LINEAR,e,25.0383,185.5080,178.4398,4.507936,0.1029763,0.61861948,340.3950,07/06.0/2022,2000,g 15.0,4.0
# From MPEC 2022-N37
286P/Christensen,e,17.0428,283.9530,24.8641,4.111559,0.1182209,0.42576386,6.4244,07/06.0/2022,2000,g 14.0,4.0
# From MPEC 2022-N37
287P/Christensen,e,16.3210,139.0456,189.0572,4.164263,0.1159837,0.27123039,317.6902,07/06.0/2022,2000,g 13.5,4.0
# From MPC133426
288P/,e,3.2381,83.1254,280.2336,3.049203,0.1851077,0.20080570,23.3623,07/06.0/2022,2000,g 16.0,2.0
# From MPEC 2022-K19
289P/Blanpain,e,5.8974,68.8834,9.8420,3.045916,0.1854075,0.68578779,172.0492,07/06.0/2022,2000,g 19.0,4.0
# From MPC 95214
290P/Jager,e,20.0575,302.6775,181.8731,6.215763,0.0636008,0.62747065,196.1319,07/06.0/2022,2000,g 10.5,4.0
# From MPEC 2022-N37
291P/NEAT,e,6.2988,237.7836,173.5746,4.541866,0.1018246,0.43570438,329.1812,07/06.0/2022,2000,g 13.0,4.0
# From MPEC 2022-K19
292P/Li,e,24.2804,90.9436,319.4948,6.103700,0.0653603,0.58922615,201.0416,07/06.0/2022,2000,g 12.5,4.0
# From MPEC 2022-L66
293P/Spacewatch,e,9.0582,78.3989,40.9851,3.641839,0.1418153,0.41827859,79.9685,07/06.0/2022,2000,g 14.5,4.0
# From MPEC 2020-SI8
294P/LINEAR,e,18.0008,311.9402,235.6478,3.188688,0.1730956,0.60230775,163.6649,07/06.0/2022,2000,g 15.5,4.0
# From MPEC 2022-K19
295P/LINEAR,e,21.0740,7.4399,72.8727,5.305761,0.0806459,0.61672462,240.7479,07/06.0/2022,2000,g 12.0,4.0
# From MPEC 2021-N06
296P/Garradd,e,25.2363,263.5730,350.0311,3.493524,0.1509415,0.47873486,99.0758,07/06.0/2022,2000,g 14.0,4.0
# From MPC102956
297P/Beshore,e,10.3060,97.4797,133.1344,3.453798,0.1535532,0.32050167,80.9897,07/06.0/2022,2000,g 15.0,4.0
# From MPC114609
298P/Christensen,e,7.8708,52.8219,100.6486,3.590560,0.1448641,0.38632138,96.7580,07/06.0/2022,2000,g 15.0,4.0
# From MPEC 2022-CN4
299P/Catalina-PANSTARRS,e,10.4693,271.6143,323.8127,4.387144,0.1072584,0.28101426,288.6727,07/06.0/2022,2000,g 11.5,4.0
# From MPEC 2022-ED3
300P/Catalina,e,5.6739,95.6329,222.9353,2.699342,0.2222374,0.69174315,297.9747,07/06.0/2022,2000,g 16.0,4.0
# From MPC 89014
301P/LINEAR-NEAT,e,10.3396,351.1745,193.6123,5.739886,0.0716719,0.58522472,205.9524,07/06.0/2022,2000,g 13.0,4.0
# From MPEC 2022-K19
302P/Lemmon-PANSTARRS,e,6.0336,121.7436,208.3993,4.274130,0.1115405,0.23031843,251.1300,07/06.0/2022,2000,g 12.5,4.0
# From MPC 92278
303P/NEAT,e,7.0214,347.9714,356.9491,5.044921,0.0869806,0.51093344,244.8420,07/06.0/2022,2000,g 13.5,4.0
# From MPEC 2022-K19
304P/Ory,e,2.6071,58.9134,335.2497,3.150726,0.1762334,0.60081177,122.0063,07/06.0/2022,2000,g 16.5,4.0
# From MPC101100
305P/Skiff,e,11.6626,240.1027,147.3411,4.641628,0.0985595,0.69382995,274.7328,07/06.0/2022,2000,g 18.0,4.0
# From MPC 92278
306P/LINEAR,e,8.3109,341.3736,0.8727,3.123848,0.1785127,0.59327861,159.7445,07/06.0/2022,2000,g 19.0,4.0
# From MPC 92278
307P/LINEAR,e,4.4357,158.1694,222.1384,5.790476,0.0707347,0.67537951,194.5869,07/06.0/2022,2000,g 15.0,4.0
# From MPEC 2022-C56
308P/Lagerkvist-Carsenty,e,4.8533,63.0520,333.6226,6.600694,0.0581192,0.36430479,151.9628,07/06.0/2022,2000,g 13.0,2.0
# From MPC 94284
309P/LINEAR,e,17.0237,10.1474,49.9374,4.372676,0.1077912,0.61804041,291.8547,07/06.0/2022,2000,g 15.0,4.0
# From MPC 98566
310P/Hill,e,13.1278,8.9214,31.7729,4.180664,0.1153018,0.42220037,305.2015,07/06.0/2022,2000,g 13.5,4.0
# From MPEC 2021-BE3
311P/PANSTARRS,e,4.9699,279.2130,144.5212,2.188264,0.3044771,0.11580145,193.8290,07/06.0/2022,2000,g 17.0,4.0
# From MPEC 2021-BE3
312P/NEAT,e,19.7672,144.6706,207.6195,3.468673,0.1525664,0.42785168,98.9878,07/06.0/2022,2000,g 16.0,4.0
# From MPEC 2021-S45
313P/Gibbs,e,10.9801,105.9662,254.8008,3.163695,0.1751508,0.23503652,142.0637,07/06.0/2022,2000,g 15.0,4.0
# From MPC105243
314P/Montani,e,3.9837,267.6064,213.9875,7.261359,0.0503706,0.41637329,105.6631,07/06.0/2022,2000,g  9.5,4.0
# From MPEC 2021-N06
315P/LONEOS,e,17.7397,68.8082,65.7310,4.940089,0.0897639,0.52093749,183.8775,07/06.0/2022,2000,g 11.0,4.0
# From MPC 92279
316P/LONEOS-Christensen,e,9.8252,246.3959,192.3549,4.376461,0.1076513,0.15592657,267.3056,07/06.0/2022,2000,g 13.5,4.0
# From MPEC 2020-C98
317P/WISE,e,11.9516,275.4900,334.8515,2.962864,0.1932576,0.57049645,125.2264,07/06.0/2022,2000,g 17.5,4.0
# From MPC102103
318P/McNaught-Hartley,e,17.8858,35.5244,313.2825,7.502253,0.0479641,0.67527008,117.2728,07/06.0/2022,2000,g  8.5,6.0
# From MPC 97499
319P/Catalina-McNaught,e,15.0945,111.3667,203.6761,3.566936,0.1463056,0.66667676,14.1290,07/06.0/2022,2000,g 15.0,4.0
# From MPC 96281
